start=new Date('2021-09-26T00:00:00.000Z').valueOf();
sats=[{"MEAN_ELEMENT_THEORY":"SGP4","REF_FRAME":"TEME","SEMIMAJOR_AXIS":"6925.348","BSTAR":"-0.00002532700000","NORAD_CAT_ID":"48460","MEAN_MOTION":"15.06400111","ARG_OF_PERICENTER":"79.8768","DECAY_DATE":null,"RCS_SIZE":"LARGE","TLE_LINE2":"2 48460  53.0550 285.7083 0000656  79.8768 280.2295 15.06400111 22008","COUNTRY_CODE":"US","EPHEMERIS_TYPE":"0","PERIAPSIS":"546.759","TLE_LINE1":"1 48460U 21040AJ  21268.75602642 -.00000658  00000-0 -25327-4 0  9994","OBJECT_NAME":"STARLINK-2582","ECCENTRICITY":"0.00006560","OBJECT_TYPE":"PAYLOAD","OBJECT_ID":"2021-040AJ","RA_OF_ASC_NODE":"285.7083","MEAN_ANOMALY":"280.2295","PERIOD":"95.592","REV_AT_EPOCH":"2200","CLASSIFICATION_TYPE":"U","FILE":"3128274","EPOCH":"2021-09-25T18:08:40.682688","APOAPSIS":"547.668","TIME_SYSTEM":"UTC","LAUNCH_DATE":"2021-05-09","INCLINATION":"53.0550","SITE":"AFETR","ELEMENT_SET_NO":"999","CENTER_NAME":"EARTH","MEAN_MOTION_DOT":"-0.00000658","MEAN_MOTION_DDOT":"0.0000000000000","GP_ID":"185508018"},{"REF_FRAME":"TEME","MEAN_ELEMENT_THEORY":"SGP4","BSTAR":"0.00013364000000","SEMIMAJOR_AXIS":"6925.326","NORAD_CAT_ID":"48461","ARG_OF_PERICENTER":"52.6887","MEAN_MOTION":"15.06407203","RCS_SIZE":"LARGE","DECAY_DATE":null,"TLE_LINE2":"2 48461  53.0546 285.6394 0000786  52.6887 307.4173 15.06407203 21503","TLE_LINE1":"1 48461U 21040AK  21268.77076061  .00001710  00000-0  13364-3 0  9992","ECCENTRICITY":"0.00007860","PERIAPSIS":"546.647","OBJECT_NAME":"STARLINK-2693","COUNTRY_CODE":"US","EPHEMERIS_TYPE":"0","OBJECT_ID":"2021-040AK","OBJECT_TYPE":"PAYLOAD","MEAN_ANOMALY":"307.4173","RA_OF_ASC_NODE":"285.6394","PERIOD":"95.592","REV_AT_EPOCH":"2150","FILE":"3128274","EPOCH":"2021-09-25T18:29:53.716704","APOAPSIS":"547.736","CLASSIFICATION_TYPE":"U","LAUNCH_DATE":"2021-05-09","TIME_SYSTEM":"UTC","SITE":"AFETR","INCLINATION":"53.0546","ELEMENT_SET_NO":"999","CENTER_NAME":"EARTH","MEAN_MOTION_DOT":"0.00001710","GP_ID":"185507911","MEAN_MOTION_DDOT":"0.0000000000000"},{"MEAN_MOTION":"15.06406036","ARG_OF_PERICENTER":"84.3129","SEMIMAJOR_AXIS":"6925.330","NORAD_CAT_ID":"48462","BSTAR":"0.00011095000000","MEAN_ELEMENT_THEORY":"SGP4","REF_FRAME":"TEME","TLE_LINE2":"2 48462  53.0472 290.5756 0000190  84.3129 275.7882 15.06406036 21438","RCS_SIZE":"LARGE","DECAY_DATE":null,"OBJECT_TYPE":"PAYLOAD","OBJECT_ID":"2021-040AL","EPHEMERIS_TYPE":"0","COUNTRY_CODE":"US","ECCENTRICITY":"0.00001900","TLE_LINE1":"1 48462U 21040AL  21268.79333491  .00001372  00000-0  11095-3 0  9991","PERIAPSIS":"547.063","OBJECT_NAME":"STARLINK-2683","PERIOD":"95.592","RA_OF_ASC_NODE":"290.5756","MEAN_ANOMALY":"275.7882","CLASSIFICATION_TYPE":"U","APOAPSIS":"547.327","FILE":"3128274","EPOCH":"2021-09-25T19:02:24.136224","REV_AT_EPOCH":"2143","SITE":"AFETR","INCLINATION":"53.0472","TIME_SYSTEM":"UTC","LAUNCH_DATE":"2021-05-09","MEAN_MOTION_DOT":"0.00001372","CENTER_NAME":"EARTH","ELEMENT_SET_NO":"999","MEAN_MOTION_DDOT":"0.0000000000000","GP_ID":"185508450"},{"MEAN_MOTION_DOT":"-0.00000161","ELEMENT_SET_NO":"999","CENTER_NAME":"EARTH","GP_ID":"185508127","MEAN_MOTION_DDOT":"0.0000000000000","EPOCH":"2021-09-25T18:14:38.161824","FILE":"3128274","APOAPSIS":"547.739","CLASSIFICATION_TYPE":"U","REV_AT_EPOCH":"2143","INCLINATION":"53.0559","SITE":"AFETR","TIME_SYSTEM":"UTC","LAUNCH_DATE":"2021-05-09","OBJECT_TYPE":"PAYLOAD","OBJECT_ID":"2021-040AM","TLE_LINE1":"1 48463U 21040AM  21268.76016391 -.00000161  00000-0  80375-5 0  9991","PERIAPSIS":"546.688","OBJECT_NAME":"STARLINK-2689","ECCENTRICITY":"0.00007590","COUNTRY_CODE":"US","EPHEMERIS_TYPE":"0","PERIOD":"95.592","MEAN_ANOMALY":"279.2546","RA_OF_ASC_NODE":"290.6934","ARG_OF_PERICENTER":"80.8529","MEAN_MOTION":"15.06399939","MEAN_ELEMENT_THEORY":"SGP4","REF_FRAME":"TEME","SEMIMAJOR_AXIS":"6925.349","NORAD_CAT_ID":"48463","BSTAR":"0.00000803750000","TLE_LINE2":"2 48463  53.0559 290.6934 0000759  80.8529 279.2546 15.06399939 21439","DECAY_DATE":null,"RCS_SIZE":"LARGE"},{"MEAN_ANOMALY":"211.6698","RA_OF_ASC_NODE":"292.5751","PERIOD":"95.592","TLE_LINE1":"1 48464U 21040AN  21268.34092023  .00001330  00000-0  10811-3 0  9996","OBJECT_NAME":"STARLINK-2686","PERIAPSIS":"547.108","ECCENTRICITY":"0.00001620","COUNTRY_CODE":"US","EPHEMERIS_TYPE":"0","OBJECT_ID":"2021-040AN","OBJECT_TYPE":"PAYLOAD","RCS_SIZE":"LARGE","DECAY_DATE":null,"TLE_LINE2":"2 48464  53.0556 292.5751 0000162 148.4300 211.6698 15.06397697 21360","MEAN_ELEMENT_THEORY":"SGP4","REF_FRAME":"TEME","NORAD_CAT_ID":"48464","SEMIMAJOR_AXIS":"6925.356","BSTAR":"0.00010811000000","ARG_OF_PERICENTER":"148.4300","MEAN_MOTION":"15.06397697","GP_ID":"185508343","MEAN_MOTION_DDOT":"0.0000000000000","ELEMENT_SET_NO":"999","CENTER_NAME":"EARTH","MEAN_MOTION_DOT":"0.00001330","LAUNCH_DATE":"2021-05-09","TIME_SYSTEM":"UTC","SITE":"AFETR","INCLINATION":"53.0556","REV_AT_EPOCH":"2136","FILE":"3128274","EPOCH":"2021-09-25T08:10:55.507872","APOAPSIS":"547.333","CLASSIFICATION_TYPE":"U"},{"SITE":"AFETR","INCLINATION":"53.0544","TIME_SYSTEM":"UTC","LAUNCH_DATE":"2021-05-09","CLASSIFICATION_TYPE":"U","APOAPSIS":"547.603","FILE":"3128274","EPOCH":"2021-09-25T08:26:48.838560","REV_AT_EPOCH":"2137","MEAN_MOTION_DDOT":"0.0000000000000","GP_ID":"185508235","MEAN_MOTION_DOT":"0.00000809","CENTER_NAME":"EARTH","ELEMENT_SET_NO":"999","TLE_LINE2":"2 48465  53.0544 292.5167 0000550  99.3086 260.7966 15.06397347 21371","RCS_SIZE":"LARGE","DECAY_DATE":null,"MEAN_MOTION":"15.06397347","ARG_OF_PERICENTER":"99.3086","NORAD_CAT_ID":"48465","SEMIMAJOR_AXIS":"6925.357","BSTAR":"0.00007319400000","MEAN_ELEMENT_THEORY":"SGP4","REF_FRAME":"TEME","PERIOD":"95.592","RA_OF_ASC_NODE":"292.5167","MEAN_ANOMALY":"260.7966","OBJECT_TYPE":"PAYLOAD","OBJECT_ID":"2021-040AP","EPHEMERIS_TYPE":"0","COUNTRY_CODE":"US","TLE_LINE1":"1 48465U 21040AP  21268.35195415  .00000809  00000-0  73194-4 0  9991","PERIAPSIS":"546.841","OBJECT_NAME":"STARLINK-2681","ECCENTRICITY":"0.00005500"},{"PERIOD":"95.592","RA_OF_ASC_NODE":"290.4737","MEAN_ANOMALY":"274.3652","OBJECT_TYPE":"PAYLOAD","OBJECT_ID":"2021-040AQ","COUNTRY_CODE":"US","EPHEMERIS_TYPE":"0","TLE_LINE1":"1 48466U 21040AQ  21268.80164220  .00001092  00000-0  92142-4 0  9991","PERIAPSIS":"547.046","OBJECT_NAME":"STARLINK-2687","ECCENTRICITY":"0.00002260","TLE_LINE2":"2 48466  53.0653 290.4737 0000226  85.7363 274.3652 15.06403490 21448","RCS_SIZE":"LARGE","DECAY_DATE":null,"MEAN_MOTION":"15.06403490","ARG_OF_PERICENTER":"85.7363","MEAN_ELEMENT_THEORY":"SGP4","REF_FRAME":"TEME","NORAD_CAT_ID":"48466","SEMIMAJOR_AXIS":"6925.338","BSTAR":"0.00009214200000","MEAN_MOTION_DDOT":"0.0000000000000","GP_ID":"185508558","MEAN_MOTION_DOT":"0.00001092","ELEMENT_SET_NO":"999","CENTER_NAME":"EARTH","INCLINATION":"53.0653","SITE":"AFETR","LAUNCH_DATE":"2021-05-09","TIME_SYSTEM":"UTC","CLASSIFICATION_TYPE":"U","EPOCH":"2021-09-25T19:14:21.886080","FILE":"3128274","APOAPSIS":"547.359","REV_AT_EPOCH":"2144"},{"MEAN_ANOMALY":"277.9570","RA_OF_ASC_NODE":"290.6880","PERIOD":"95.592","OBJECT_NAME":"STARLINK-2659","TLE_LINE1":"1 48467U 21040AR  21268.76109801 -.00000152  00000-0  86829-5 0  9994","PERIAPSIS":"546.795","ECCENTRICITY":"0.00006010","COUNTRY_CODE":"US","EPHEMERIS_TYPE":"0","OBJECT_ID":"2021-040AR","OBJECT_TYPE":"PAYLOAD","RCS_SIZE":"LARGE","DECAY_DATE":null,"TLE_LINE2":"2 48467  53.0554 290.6880 0000601  82.1487 277.9570 15.06400663 21431","REF_FRAME":"TEME","MEAN_ELEMENT_THEORY":"SGP4","BSTAR":"0.00000868290000","SEMIMAJOR_AXIS":"6925.347","NORAD_CAT_ID":"48467","ARG_OF_PERICENTER":"82.1487","MEAN_MOTION":"15.06400663","GP_ID":"185507803","MEAN_MOTION_DDOT":"0.0000000000000","ELEMENT_SET_NO":"999","CENTER_NAME":"EARTH","MEAN_MOTION_DOT":"-0.00000152","TIME_SYSTEM":"UTC","LAUNCH_DATE":"2021-05-09","SITE":"AFETR","INCLINATION":"53.0554","REV_AT_EPOCH":"2143","EPOCH":"2021-09-25T18:15:58.868064","FILE":"3128274","APOAPSIS":"547.628","CLASSIFICATION_TYPE":"U"},{"MEAN_MOTION":"15.06395635","ARG_OF_PERICENTER":"74.5570","BSTAR":"0.00009350000000","SEMIMAJOR_AXIS":"6925.362","NORAD_CAT_ID":"48468","MEAN_ELEMENT_THEORY":"SGP4","REF_FRAME":"TEME","TLE_LINE2":"2 48468  53.0548 292.5527 0000526  74.5570 285.5477 15.06395635 21374","DECAY_DATE":null,"RCS_SIZE":"LARGE","OBJECT_ID":"2021-040AS","OBJECT_TYPE":"PAYLOAD","EPHEMERIS_TYPE":"0","COUNTRY_CODE":"US","PERIAPSIS":"546.863","TLE_LINE1":"1 48468U 21040AS  21268.34458916  .00001112  00000-0  93500-4 0  9992","ECCENTRICITY":"0.00005260","OBJECT_NAME":"STARLINK-2685","PERIOD":"95.592","RA_OF_ASC_NODE":"292.5527","MEAN_ANOMALY":"285.5477","CLASSIFICATION_TYPE":"U","APOAPSIS":"547.591","FILE":"3128274","EPOCH":"2021-09-25T08:16:12.503424","REV_AT_EPOCH":"2137","SITE":"AFETR","INCLINATION":"53.0548","TIME_SYSTEM":"UTC","LAUNCH_DATE":"2021-05-09","MEAN_MOTION_DOT":"0.00001112","CENTER_NAME":"EARTH","ELEMENT_SET_NO":"999","MEAN_MOTION_DDOT":"0.0000000000000","GP_ID":"185508019"},{"ARG_OF_PERICENTER":"60.2413","MEAN_MOTION":"15.06402346","MEAN_ELEMENT_THEORY":"SGP4","REF_FRAME":"TEME","SEMIMAJOR_AXIS":"6925.341","NORAD_CAT_ID":"48469","BSTAR":"0.00009913800000","TLE_LINE2":"2 48469  53.0563 290.7097 0000492  60.2413 299.8625 15.06402346 21432","RCS_SIZE":"LARGE","DECAY_DATE":null,"OBJECT_TYPE":"PAYLOAD","OBJECT_ID":"2021-040AT","OBJECT_NAME":"STARLINK-2661","TLE_LINE1":"1 48469U 21040AT  21268.75740936  .00001196  00000-0  99138-4 0  9999","PERIAPSIS":"546.866","ECCENTRICITY":"0.00004920","COUNTRY_CODE":"US","EPHEMERIS_TYPE":"0","PERIOD":"95.592","MEAN_ANOMALY":"299.8625","RA_OF_ASC_NODE":"290.7097","FILE":"3128274","EPOCH":"2021-09-25T18:10:40.168704","APOAPSIS":"547.547","CLASSIFICATION_TYPE":"U","REV_AT_EPOCH":"2143","INCLINATION":"53.0563","SITE":"AFETR","TIME_SYSTEM":"UTC","LAUNCH_DATE":"2021-05-09","MEAN_MOTION_DOT":"0.00001196","ELEMENT_SET_NO":"999","CENTER_NAME":"EARTH","GP_ID":"185507912","MEAN_MOTION_DDOT":"0.0000000000000"}];
